[{"OBJECT_NAME":"AMC-3","OBJECT_ID":"1997-050A","EPOCH":"2026-04-26T20:04:12.564192","MEAN_MOTION":1.00271411,"ECCENTRICITY":0.000309,"INCLINATION":8.0228,"RA_OF_ASC_NODE":64.6637,"ARG_OF_PERICENTER":321.0795,"MEAN_ANOMALY":58.1392,"EPHEMERIS_TYPE":0,"CLASSIFICATION_TYPE":"U","NORAD_CAT_ID":24936,"ELEMENT_SET_NO":999,"REV_AT_EPOCH":5192,"BSTAR":0,"MEAN_MOTION_DOT":-2.68e-6,"MEAN_MOTION_DDOT":0},{"OBJECT_NAME":"NSS-11","OBJECT_ID":"2000-059A","EPOCH":"2026-04-26T21:14:58.049376","MEAN_MOTION":1.0027271,"ECCENTRICITY":0.0002864,"INCLINATION":1.996,"RA_OF_ASC_NODE":81.9605,"ARG_OF_PERICENTER":314.9686,"MEAN_ANOMALY":312.6911,"EPHEMERIS_TYPE":0,"CLASSIFICATION_TYPE":"U","NORAD_CAT_ID":26554,"ELEMENT_SET_NO":999,"REV_AT_EPOCH":4077,"BSTAR":0,"MEAN_MOTION_DOT":1.6e-7,"MEAN_MOTION_DDOT":0},{"OBJECT_NAME":"AMC-6","OBJECT_ID":"2000-067A","EPOCH":"2026-04-26T17:26:34.567008","MEAN_MOTION":1.00274255,"ECCENTRICITY":0.00039698,"INCLINATION":0.0764,"RA_OF_ASC_NODE":69.2678,"ARG_OF_PERICENTER":343.734,"MEAN_ANOMALY":288.36,"EPHEMERIS_TYPE":0,"CLASSIFICATION_TYPE":"U","NORAD_CAT_ID":26580,"ELEMENT_SET_NO":999,"REV_AT_EPOCH":9337,"BSTAR":0,"MEAN_MOTION_DOT":7.6e-7,"MEAN_MOTION_DDOT":0},{"OBJECT_NAME":"AMC-11","OBJECT_ID":"2004-017A","EPOCH":"2026-04-27T04:46:42.142368","MEAN_MOTION":0.99091624,"ECCENTRICITY":6.259e-5,"INCLINATION":0.1579,"RA_OF_ASC_NODE":76.7085,"ARG_OF_PERICENTER":334.3227,"MEAN_ANOMALY":88.367,"EPHEMERIS_TYPE":0,"CLASSIFICATION_TYPE":"U","NORAD_CAT_ID":28252,"ELEMENT_SET_NO":999,"REV_AT_EPOCH":8035,"BSTAR":0,"MEAN_MOTION_DOT":2.7e-7,"MEAN_MOTION_DDOT":0},{"OBJECT_NAME":"AMC-15","OBJECT_ID":"2004-041A","EPOCH":"2026-04-27T06:40:43.511232","MEAN_MOTION":1.00272145,"ECCENTRICITY":0.00023958,"INCLINATION":0.0512,"RA_OF_ASC_NODE":56.1768,"ARG_OF_PERICENTER":334.6186,"MEAN_ANOMALY":179.5915,"EPHEMERIS_TYPE":0,"CLASSIFICATION_TYPE":"U","NORAD_CAT_ID":28446,"ELEMENT_SET_NO":999,"REV_AT_EPOCH":7879,"BSTAR":0,"MEAN_MOTION_DOT":-9.9e-7,"MEAN_MOTION_DDOT":0},{"OBJECT_NAME":"NSS-10","OBJECT_ID":"2005-003A","EPOCH":"2026-04-26T18:31:20.959968","MEAN_MOTION":1.00271746,"ECCENTRICITY":0.00031502,"INCLINATION":6.3239,"RA_OF_ASC_NODE":71.0646,"ARG_OF_PERICENTER":319.5106,"MEAN_ANOMALY":64.5797,"EPHEMERIS_TYPE":0,"CLASSIFICATION_TYPE":"U","NORAD_CAT_ID":28526,"ELEMENT_SET_NO":999,"REV_AT_EPOCH":5264,"BSTAR":0,"MEAN_MOTION_DOT":-2.58e-6,"MEAN_MOTION_DDOT":0},{"OBJECT_NAME":"ASTRA 1KR","OBJECT_ID":"2006-012A","EPOCH":"2026-04-27T05:04:38.648352","MEAN_MOTION":1.0027394,"ECCENTRICITY":0.00034813,"INCLINATION":0.3435,"RA_OF_ASC_NODE":82.5907,"ARG_OF_PERICENTER":312.5682,"MEAN_ANOMALY":275.2031,"EPHEMERIS_TYPE":0,"CLASSIFICATION_TYPE":"U","NORAD_CAT_ID":29055,"ELEMENT_SET_NO":999,"REV_AT_EPOCH":4518,"BSTAR":0,"MEAN_MOTION_DOT":1.09e-6,"MEAN_MOTION_DDOT":0},{"OBJECT_NAME":"ASTRA 1L","OBJECT_ID":"2007-016A","EPOCH":"2026-04-27T05:36:38.689632","MEAN_MOTION":1.00271472,"ECCENTRICITY":0.00047509,"INCLINATION":1.1918,"RA_OF_ASC_NODE":81.9061,"ARG_OF_PERICENTER":329.9134,"MEAN_ANOMALY":223.0552,"EPHEMERIS_TYPE":0,"CLASSIFICATION_TYPE":"U","NORAD_CAT_ID":31306,"ELEMENT_SET_NO":999,"REV_AT_EPOCH":4447,"BSTAR":0,"MEAN_MOTION_DOT":-1.93e-6,"MEAN_MOTION_DDOT":0},{"OBJECT_NAME":"ASTRA 4A","OBJECT_ID":"2007-057A","EPOCH":"2026-04-27T05:20:38.796864","MEAN_MOTION":1.00271781,"ECCENTRICITY":0.00024509,"INCLINATION":0.0231,"RA_OF_ASC_NODE":356.6388,"ARG_OF_PERICENTER":33.7228,"MEAN_ANOMALY":269.8153,"EPHEMERIS_TYPE":0,"CLASSIFICATION_TYPE":"U","NORAD_CAT_ID":32299,"ELEMENT_SET_NO":999,"REV_AT_EPOCH":5113,"BSTAR":0,"MEAN_MOTION_DOT":2.2e-7,"MEAN_MOTION_DDOT":0},{"OBJECT_NAME":"ASTRA 1M","OBJECT_ID":"2008-057A","EPOCH":"2026-04-27T05:04:38.648352","MEAN_MOTION":1.00274738,"ECCENTRICITY":0.00039066,"INCLINATION":0.1662,"RA_OF_ASC_NODE":79.5439,"ARG_OF_PERICENTER":2.5412,"MEAN_ANOMALY":228.6914,"EPHEMERIS_TYPE":0,"CLASSIFICATION_TYPE":"U","NORAD_CAT_ID":33436,"ELEMENT_SET_NO":999,"REV_AT_EPOCH":4522,"BSTAR":0,"MEAN_MOTION_DOT":1.11e-6,"MEAN_MOTION_DDOT":0},{"OBJECT_NAME":"NSS-9","OBJECT_ID":"2009-008A","EPOCH":"2026-04-27T02:06:38.587104","MEAN_MOTION":1.00271968,"ECCENTRICITY":0.00021832,"INCLINATION":1.1314,"RA_OF_ASC_NODE":83.0733,"ARG_OF_PERICENTER":296.7683,"MEAN_ANOMALY":49.9593,"EPHEMERIS_TYPE":0,"CLASSIFICATION_TYPE":"U","NORAD_CAT_ID":33749,"ELEMENT_SET_NO":999,"REV_AT_EPOCH":6300,"BSTAR":0,"MEAN_MOTION_DOT":6.2e-7,"MEAN_MOTION_DDOT":0},{"OBJECT_NAME":"SES-7 (PROTOSTAR 2)","OBJECT_ID":"2009-027A","EPOCH":"2026-04-27T02:53:38.567328","MEAN_MOTION":1.00270235,"ECCENTRICITY":0.0001656,"INCLINATION":0.0985,"RA_OF_ASC_NODE":79.5234,"ARG_OF_PERICENTER":248.3031,"MEAN_ANOMALY":38.9459,"EPHEMERIS_TYPE":0,"CLASSIFICATION_TYPE":"U","NORAD_CAT_ID":34941,"ELEMENT_SET_NO":999,"REV_AT_EPOCH":6211,"BSTAR":0,"MEAN_MOTION_DOT":-3.55e-6,"MEAN_MOTION_DDOT":0},{"OBJECT_NAME":"NSS-12","OBJECT_ID":"2009-058A","EPOCH":"2026-04-27T04:40:38.535744","MEAN_MOTION":1.00272489,"ECCENTRICITY":0.00050362,"INCLINATION":0.0642,"RA_OF_ASC_NODE":63.0808,"ARG_OF_PERICENTER":310.5221,"MEAN_ANOMALY":328.7374,"EPHEMERIS_TYPE":0,"CLASSIFICATION_TYPE":"U","NORAD_CAT_ID":36032,"ELEMENT_SET_NO":999,"REV_AT_EPOCH":6040,"BSTAR":0,"MEAN_MOTION_DOT":6.1e-7,"MEAN_MOTION_DDOT":0},{"OBJECT_NAME":"SES-1","OBJECT_ID":"2010-016A","EPOCH":"2026-04-27T02:34:38.629920","MEAN_MOTION":1.00272087,"ECCENTRICITY":0.00026326,"INCLINATION":0.0226,"RA_OF_ASC_NODE":290.5557,"ARG_OF_PERICENTER":105.0239,"MEAN_ANOMALY":117.1773,"EPHEMERIS_TYPE":0,"CLASSIFICATION_TYPE":"U","NORAD_CAT_ID":36516,"ELEMENT_SET_NO":999,"REV_AT_EPOCH":5852,"BSTAR":0,"MEAN_MOTION_DOT":-1.25e-6,"MEAN_MOTION_DDOT":0},{"OBJECT_NAME":"ASTRA 3B","OBJECT_ID":"2010-021A","EPOCH":"2026-04-27T05:04:38.648352","MEAN_MOTION":1.00269369,"ECCENTRICITY":0.00039064,"INCLINATION":1.3382,"RA_OF_ASC_NODE":84.1321,"ARG_OF_PERICENTER":320.6387,"MEAN_ANOMALY":270.1081,"EPHEMERIS_TYPE":0,"CLASSIFICATION_TYPE":"U","NORAD_CAT_ID":36581,"ELEMENT_SET_NO":999,"REV_AT_EPOCH":5835,"BSTAR":0,"MEAN_MOTION_DOT":1.28e-6,"MEAN_MOTION_DDOT":0},{"OBJECT_NAME":"SES-3","OBJECT_ID":"2011-035A","EPOCH":"2026-04-27T03:38:38.455872","MEAN_MOTION":1.00271726,"ECCENTRICITY":0.00031158,"INCLINATION":1.1964,"RA_OF_ASC_NODE":83.5816,"ARG_OF_PERICENTER":314.2886,"MEAN_ANOMALY":128.9374,"EPHEMERIS_TYPE":0,"CLASSIFICATION_TYPE":"U","NORAD_CAT_ID":37748,"ELEMENT_SET_NO":999,"REV_AT_EPOCH":5408,"BSTAR":0,"MEAN_MOTION_DOT":-1.11e-6,"MEAN_MOTION_DDOT":0},{"OBJECT_NAME":"ASTRA 1N","OBJECT_ID":"2011-041A","EPOCH":"2026-04-27T01:38:10.303584","MEAN_MOTION":1.00270915,"ECCENTRICITY":0.00055549,"INCLINATION":0.0993,"RA_OF_ASC_NODE":50.5132,"ARG_OF_PERICENTER":9.3465,"MEAN_ANOMALY":198.9458,"EPHEMERIS_TYPE":0,"CLASSIFICATION_TYPE":"U","NORAD_CAT_ID":37775,"ELEMENT_SET_NO":999,"REV_AT_EPOCH":4401,"BSTAR":0,"MEAN_MOTION_DOT":1.09e-6,"MEAN_MOTION_DDOT":0}]
