AMC-3                   
1 24936U 97050A   26116.83625653 -.00000268  00000+0  00000+0 0  9994
2 24936   8.0228  64.6637 0003090 321.0795  58.1392  1.00271411 51929
NSS-11                  
1 26554U 00059A   26116.88539409  .00000016  00000+0  00000+0 0  9993
2 26554   1.9960  81.9605 0002864 314.9686 312.6911  1.00272710 40776
AMC-6                   
1 26580U 00067A   26116.72678897  .00000076  00000+0  00000+0 0  9995
2 26580   0.0764  69.2678 0003969 343.7340 288.3600  1.00274255 93374
AMC-11                  
1 28252U 04017A   26117.19909887  .00000027  00000+0  00000+0 0  9996
2 28252   0.1579  76.7085 0000625 334.3227  88.3670  0.99091624 80351
AMC-15                  
1 28446U 04041A   26117.27828138 -.00000099  00000+0  00000+0 0  9996
2 28446   0.0512  56.1768 0002395 334.6186 179.5915  1.00272145 78797
NSS-10                  
1 28526U 05003A   26116.77177037 -.00000258  00000+0  00000+0 0  9990
2 28526   6.3239  71.0646 0003150 319.5106  64.5797  1.00271746 52649
ASTRA 1KR               
1 29055U 06012A   26117.21155843  .00000109  00000+0  00000+0 0  9994
2 29055   0.3435  82.5907 0003481 312.5682 275.2031  1.00273940 45186
ASTRA 1L                
1 31306U 07016A   26117.23378113 -.00000193  00000+0  00000+0 0  9994
2 31306   1.1918  81.9061 0004750 329.9134 223.0552  1.00271472 44479
ASTRA 4A                
1 32299U 07057A   26117.22267126  .00000022  00000+0  00000+0 0  9991
2 32299   0.0231 356.6388 0002450  33.7228 269.8153  1.00271781 51139
ASTRA 1M                
1 33436U 08057A   26117.21155843  .00000111  00000+0  00000+0 0  9996
2 33436   0.1662  79.5439 0003906   2.5412 228.6914  1.00274738 45222
NSS-9                   
1 33749U 09008A   26117.08794661  .00000062  00000+0  00000+0 0  9997
2 33749   1.1314  83.0733 0002183 296.7683  49.9593  1.00271968 63009
SES-7 (PROTOSTAR 2)     
1 34941U 09027A   26117.12058527 -.00000355  00000+0  00000+0 0  9998
2 34941   0.0985  79.5234 0001656 248.3031  38.9459  1.00270235 62112
NSS-12                  
1 36032U 09058A   26117.19489046  .00000061  00000+0  00000+0 0  9999
2 36032   0.0642  63.0808 0005036 310.5221 328.7374  1.00272489 60408
SES-1                   
1 36516U 10016A   26117.10739155 -.00000125  00000+0  00000+0 0  9994
2 36516   0.0226 290.5557 0002632 105.0239 117.1773  1.00272087 58523
ASTRA 3B                
1 36581U 10021A   26117.21155843  .00000128  00000+0  00000+0 0  9992
2 36581   1.3382  84.1321 0003906 320.6387 270.1081  1.00269369 58354
SES-3                   
1 37748U 11035A   26117.15183398 -.00000111  00000+0  00000+0 0  9996
2 37748   1.1964  83.5816 0003115 314.2886 128.9374  1.00271726 54082
ASTRA 1N                
1 37775U 11041A   26117.06817481  .00000109  00000+0  00000+0 0  9996
2 37775   0.0993  50.5132 0005554   9.3465 198.9458  1.00270915 44012
